STARLINK-31576          
1 59208U 24046H   26134.49827562  .00000689  00000+0  31532-4 0  9999
2 59208  53.1598 209.0615 0000977  73.9370 286.1740 15.34389302123138
STARLINK-31601          
1 59209U 24046J   26134.47302242  .00001354  00000+0  51214-4 0  9990
2 59209  53.1609 208.9060 0001170  72.6764 287.4367 15.34389362123138
STARLINK-31520          
1 59210U 24046K   26135.21570513 -.00000207  00000+0  51373-5 0  9997
2 59210  53.1588 206.4225 0000837  73.6919 286.4174 15.30196806123235
STARLINK-31496          
1 59211U 24046L   26134.43242999  .00000357  00000+0  24190-4 0  9996
2 59211  53.1606 197.2916 0001245  89.1677 270.9466 15.30195884123280
STARLINK-31492          
1 59212U 24046M   26134.58155581  .00000700  00000+0  35747-4 0  9995
2 59212  53.1585 209.5718 0000995  97.9181 262.1933 15.30190857123122
STARLINK-31517          
1 59213U 24046N   26135.21685422  .00002696  00000+0  90862-4 0  9994
2 59213  53.1614 205.7543 0001229  91.9596 268.1547 15.34415478123237
STARLINK-31604          
1 59214U 24046P   26135.21266403 -.00000360  00000+0  47454-6 0  9997
2 59214  53.1615 205.6989 0001254 101.4344 258.6799 15.34397713123232
STARLINK-31434          
1 59215U 24046Q   26135.18742033  .00000014  00000+0  11567-4 0  9991
2 59215  53.1606 205.5434 0001187  88.5258 271.5881 15.34384483123237
STARLINK-31417          
1 59216U 24046R   26135.16833770 -.00000997  00000+0 -21558-4 0  9992
2 59216  53.1590 206.8392 0001070  90.0299 270.0824 15.30194448123092
STARLINK-31499          
1 59217U 24046S   26135.20004193  .00000261  00000+0  18855-4 0  9995
2 59217  53.1610 205.6181 0001079  80.3295 279.7830 15.34386363123238
STARLINK-31421          
1 59218U 24046T   26135.19162936  .00000288  00000+0  19678-4 0  9997
2 59218  53.1601 205.5942 0001121  87.0802 273.0329 15.34387082123238
STARLINK-31518          
1 59219U 24046U   26135.20428556 -.00003402  00000+0 -89721-4 0  9992
2 59219  53.1600 205.6450 0000851  42.7057 317.4012 15.34360246123237
STARLINK-31523          
1 59220U 24046V   26135.21897894  .00000174  00000+0  16269-4 0  9998
2 59220  53.1603 205.7355 0000864  70.5573 289.5523 15.34389613123238
STARLINK-31516          
1 59221U 24046W   26134.60960965  .00001004  00000+0  40852-4 0  9999
2 59221  53.1607 208.3356 0001075  83.3273 276.7852 15.34385972123144
STARLINK-31490          
1 59222U 24046X   26135.16622125 -.00000274  00000+0  28633-5 0  9998
2 59222  53.1572 206.8203 0000764  94.9616 265.1471 15.30191518123217
STARLINK-31420          
1 59223U 24046Y   26135.22836869 -.00000124  00000+0  79501-5 0  9992
2 59223  53.1590 206.4987 0001049  89.8898 270.2223 15.30196332123227
STRIX-3                 
1 59224U 24047A   26135.24281164  .00004314  00000+0  21023-3 0  9996
2 59224  97.6612 110.4509 0013576 168.4136 191.7413 15.18816365119748
STARLINK-31305          
1 59232U 24049B   26135.02559386 -.00007769  00000+0 -27295-3 0  9993
2 59232  43.0031 128.6896 0001497 284.1010  75.9675 15.27597331122536
STARLINK-31459          
1 59233U 24049C   26135.30256552  .00000756  00000+0  37011-4 0  9999
2 59233  43.0022 127.3462 0001126 315.7860  44.2901 15.27577148122585
STARLINK-31438          
1 59234U 24049D   26134.99364226  .00000382  00000+0  23407-4 0  9991
2 59234  43.0023 118.0819 0001072 272.8460  87.2269 15.27575590122661
STARLINK-31467          
1 59235U 24049E   26134.97306520 -.00000729  00000+0 -16960-4 0  9996
2 59235  43.0013 129.1723 0001164 284.6445  75.4277 15.27586177122542
STARLINK-31444          
1 59236U 24049F   26135.13798524  .00009120  00000+0  26520-3 0  9999
2 59236  43.0028  56.4937 0007076 201.5074 158.5484 15.35638743123362
STARLINK-31505          
1 59237U 24049G   26134.97948798 -.00001303  00000+0 -37817-4 0  9990
2 59237  43.0025 129.2279 0002213 282.6185  77.4420 15.27590228122543
STARLINK-31494          
1 59238U 24049H   26135.02303196 -.00000032  00000+0  83582-5 0  9993
2 59238  43.0016 128.6873 0000966 272.0182  88.0559 15.27581308122551
STARLINK-31303          
1 59239U 24049J   26135.01034416 -.00003159  00000+0 -10525-3 0  9998
2 59239  43.0053 118.1418 0003135 285.4710  74.5795 15.27584393122670
STARLINK-31408          
1 59240U 24049K   26134.99748899  .00010629  00000+0  39586-3 0  9999
2 59240  43.0017 129.3517 0001914 268.4571  91.6061 15.27527207122548
STARLINK-31427          
1 59241U 24049L   26135.00132884  .00000353  00000+0  22332-4 0  9999
2 59241  43.0011 129.3517 0000942 273.1174  86.9570 15.27577125122541
STARLINK-31423          
1 59242U 24049M   26135.06029186  .00000255  00000+0  18778-4 0  9996
2 59242  43.0001 128.9571 0001186 266.1917  93.8799 15.27576122122551
STARLINK-31433          
1 59243U 24049N   26135.03459339  .00000291  00000+0  20087-4 0  9997
2 59243  43.0025 128.7742 0001110 284.7384  75.3345 15.27579037122557
STARLINK-31285          
1 59244U 24049P   26134.69224161 -.00000149  00000+0  41039-5 0  9996
2 59244  43.0019 130.5026 0000743 274.3300  85.7467 15.27576953122498
