OBJECT_NAME,OBJECT_ID,EPOCH,MEAN_MOTION,ECCENTRICITY,INCLINATION,RA_OF_ASC_NODE,ARG_OF_PERICENTER,MEAN_ANOMALY,EPHEMERIS_TYPE,CLASSIFICATION_TYPE,NORAD_CAT_ID,ELEMENT_SET_NO,REV_AT_EPOCH,BSTAR,MEAN_MOTION_DOT,MEAN_MOTION_DDOT
STARLINK-31576,2024-046H,2026-05-14T11:57:31.013568,15.34389302,.00009775,53.1598,209.0615,73.9370,286.1740,0,U,59208,999,12313,.31532173E-4,.689E-5,0
STARLINK-31601,2024-046J,2026-05-14T11:21:09.137088,15.34389362,.00011702,53.1609,208.9060,72.6764,287.4367,0,U,59209,999,12313,.51214233E-4,.1354E-4,0
STARLINK-31520,2024-046K,2026-05-15T05:10:36.923232,15.30196806,.00008378,53.1588,206.4225,73.6919,286.4174,0,U,59210,999,12323,.5137341E-5,-.207E-5,0
STARLINK-31496,2024-046L,2026-05-14T10:22:41.951136,15.30195884,.00012459,53.1606,197.2916,89.1677,270.9466,0,U,59211,999,12328,.24190085E-4,.357E-5,0
STARLINK-31492,2024-046M,2026-05-14T13:57:26.421984,15.30190857,.0000995,53.1585,209.5718,97.9181,262.1933,0,U,59212,999,12312,.35747091E-4,.7E-5,0
STARLINK-31517,2024-046N,2026-05-15T05:12:16.204608,15.34415478,.00012292,53.1614,205.7543,91.9596,268.1547,0,U,59213,999,12323,.90862086E-4,.2696E-4,0
STARLINK-31604,2024-046P,2026-05-15T05:06:14.172192,15.34397713,.00012541,53.1615,205.6989,101.4344,258.6799,0,U,59214,999,12323,.474536E-6,-.36E-5,0
STARLINK-31434,2024-046Q,2026-05-15T04:29:53.116512,15.34384483,.00011872,53.1606,205.5434,88.5258,271.5881,0,U,59215,999,12323,.11566984E-4,.14E-6,0
STARLINK-31417,2024-046R,2026-05-15T04:02:24.377280,15.30194448,.00010704,53.1590,206.8392,90.0299,270.0824,0,U,59216,999,12309,-.21558149E-4,-.997E-5,0
STARLINK-31499,2024-046S,2026-05-15T04:48:03.622752,15.34386363,.00010791,53.1610,205.6181,80.3295,279.7830,0,U,59217,999,12323,.18855337E-4,.261E-5,0
STARLINK-31421,2024-046T,2026-05-15T04:35:56.776704,15.34387082,.00011217,53.1601,205.5942,87.0802,273.0329,0,U,59218,999,12323,.19677603E-4,.288E-5,0
STARLINK-31518,2024-046U,2026-05-15T04:54:10.272384,15.34360246,.00008512,53.1600,205.6450,42.7057,317.4012,0,U,59219,999,12323,-.89720892E-4,-.3402E-4,0
STARLINK-31523,2024-046V,2026-05-15T05:15:19.780416,15.34389613,.00008641,53.1603,205.7355,70.5573,289.5523,0,U,59220,999,12323,.16268993E-4,.174E-5,0
STARLINK-31516,2024-046W,2026-05-14T14:37:50.273760,15.34385972,.00010752,53.1607,208.3356,83.3273,276.7852,0,U,59221,999,12314,.40852295E-4,.1004E-4,0
STARLINK-31490,2024-046X,2026-05-15T03:59:21.516000,15.30191518,.00007642,53.1572,206.8203,94.9616,265.1471,0,U,59222,999,12321,.2863263E-5,-.274E-5,0
STARLINK-31420,2024-046Y,2026-05-15T05:28:51.054816,15.30196332,.00010497,53.1590,206.4987,89.8898,270.2223,0,U,59223,999,12322,.7950149E-5,-.124E-5,0
STRIX-3,2024-047A,2026-05-15T05:49:38.925696,15.18816365,.00135763,97.6612,110.4509,168.4136,191.7413,0,U,59224,999,11974,.21023234E-3,.4314E-4,0
STARLINK-31305,2024-049B,2026-05-15T00:36:51.309504,15.27597331,.00014973,43.0031,128.6896,284.1010,75.9675,0,U,59232,999,12253,-.2729476E-3,-.7769E-4,0
STARLINK-31459,2024-049C,2026-05-15T07:15:41.660928,15.27577148,.00011263,43.0022,127.3462,315.7860,44.2901,0,U,59233,999,12258,.37010742E-4,.756E-5,0
STARLINK-31438,2024-049D,2026-05-14T23:50:50.691264,15.27575590,.00010725,43.0023,118.0819,272.8460,87.2269,0,U,59234,999,12266,.23406525E-4,.382E-5,0
STARLINK-31467,2024-049E,2026-05-14T23:21:12.833280,15.27586177,.00011646,43.0013,129.1723,284.6445,75.4277,0,U,59235,999,12254,-.16960033E-4,-.729E-5,0
STARLINK-31444,2024-049F,2026-05-15T03:18:41.924736,15.35638743,.00070764,43.0028,56.4937,201.5074,158.5484,0,U,59236,999,12336,.26520277E-3,.912E-4,0
STARLINK-31505,2024-049G,2026-05-14T23:30:27.761472,15.27590228,.00022133,43.0025,129.2279,282.6185,77.4420,0,U,59237,999,12254,-.37816556E-4,-.1303E-4,0
STARLINK-31494,2024-049H,2026-05-15T00:33:09.961344,15.27581308,.00009661,43.0016,128.6873,272.0182,88.0559,0,U,59238,999,12255,.8358159E-5,-.32E-6,0
STARLINK-31303,2024-049J,2026-05-15T00:14:53.735424,15.27584393,.00031353,43.0053,118.1418,285.4710,74.5795,0,U,59239,999,12267,-.10524723E-3,-.3159E-4,0
STARLINK-31408,2024-049K,2026-05-14T23:56:23.048736,15.27527207,.00019141,43.0017,129.3517,268.4571,91.6061,0,U,59240,999,12254,.39586031E-3,.10629E-3,0
STARLINK-31427,2024-049L,2026-05-15T00:01:54.811776,15.27577125,.00009428,43.0011,129.3517,273.1174,86.9570,0,U,59241,999,12254,.22331536E-4,.353E-5,0
STARLINK-31423,2024-049M,2026-05-15T01:26:49.216704,15.27576122,.00011863,43.0001,128.9571,266.1917,93.8799,0,U,59242,999,12255,.18778383E-4,.255E-5,0
STARLINK-31433,2024-049N,2026-05-15T00:49:48.868896,15.27579037,.00011104,43.0025,128.7742,284.7384,75.3345,0,U,59243,999,12255,.20086703E-4,.291E-5,0
STARLINK-31285,2024-049P,2026-05-14T16:36:49.675104,15.27576953,.00007435,43.0019,130.5026,274.3300,85.7467,0,U,59244,999,12249,.4103885E-5,-.149E-5,0
